STARLINK-5496           
1 56886U 23083L   26077.83335647  .00057451  00000+0  32889-2 0  9993
2 56886  43.0006  31.7955 0000461 236.2881 329.3283 15.11839945  5820
STARLINK-6180           
1 56887U 23083M   26077.83335647  .00059391  00000+0  36419-2 0  9992
2 56887  43.0002  32.0192 0001851 262.2649 206.6581 15.09336076  5775
STARLINK-6181           
1 56888U 23083N   26077.83335647  .00059243  00000+0  37197-2 0  9993
2 56888  43.0012  31.8296 0000865 266.1902 282.4126 15.08474276  5825
STARLINK-6169           
1 56889U 23083P   26077.83335647  .00056211  00000+0  33964-2 0  9994
2 56889  43.0009  31.8987 0000331 313.9038 207.2914 15.09897733  5770
STARLINK-5528           
1 56890U 23083Q   26077.83335647  .00058623  00000+0  36791-2 0  9996
2 56890  43.0013  31.8439 0000939 258.3915 284.3279 15.08496203  5562
STARLINK-6213           
1 56891U 23083R   26077.83335647  .00056671  00000+0  33274-2 0  9991
2 56891  43.0005  31.7806 0000443 242.3596 328.7078 15.10933921  5824
STARLINK-6219           
1 56892U 23083S   26077.83335647  .00059383  00000+0  38738-2 0  9995
2 56892  43.0014  31.7967 0000848 312.4169 249.3801 15.07068251  5820
STARLINK-6216           
1 56893U 23083T   26077.83335647  .00059960  00000+0  36430-2 0  9994
2 56893  43.0014  31.8118 0000787 266.8381 289.9346 15.09668953  5775
STARLINK-6144           
1 56894U 23083U   26077.83335647  .00060155  00000+0  38292-2 0  9991
2 56894  43.0015  31.7829 0000676 297.1303 270.5327 15.07964538  5820
STARLINK-6208           
1 56895U 23083V   26077.83335647  .00058761  00000+0  39598-2 0  9992
2 56895  43.0013  31.8055 0001031 317.8248 241.0595 15.05871081  5463
STARLINK-6202           
1 56896U 23083W   26077.83335647  .00058932  00000+0  39229-2 0  9994
2 56896  43.0007  31.7318 0000631 323.2540 265.3567 15.06323977  5824
STARLINK-6200           
1 56897U 23083X   26077.83335647  .00060138  00000+0  38527-2 0  9996
2 56897  43.0009  31.7319 0000474 286.0934 302.3320 15.07729387  5764
STARLINK-6205           
1 56898U 23083Y   26077.83335647  .00106841  00000+0  42888-2 0  9994
2 56898  43.0006  29.9959 0001318 251.6145 354.3303 15.23875888  5811
STARLINK-6203           
1 56899U 23083Z   26077.83335647  .00036748  00000+0  13733-2 0  9990
2 56899  43.0004  29.6048 0001243 253.2289 157.0091 15.26727307  5828
STARLINK-6207           
1 56900U 23083AA  26077.83335647  .00060123  00000+0  28933-2 0  9995
2 56900  43.0002  18.6691 0000971 262.8047 359.1451 15.17960028  5819
STARLINK-6185           
1 56901U 23083AB  26077.83335647  .00101963  00000+0  40476-2 0  9990
2 56901  43.0000  29.9273 0001533 243.2796  29.4559 15.24275867  5812
STARLINK-6195           
1 56902U 23083AC  26077.83335647  .00052436  00000+0  26249-2 0  9993
2 56902  43.0008  18.7995 0000459 255.1896 311.6636 15.16641369  5814
