[{"OBJECT_NAME":"STARLINK-5496","OBJECT_ID":"2023-083L","EPOCH":"2026-03-18T20:00:01.999008","MEAN_MOTION":15.11839945,"ECCENTRICITY":4.61e-5,"INCLINATION":43.0006,"RA_OF_ASC_NODE":31.7955,"ARG_OF_PERICENTER":236.2881,"MEAN_ANOMALY":329.3283,"EPHEMERIS_TYPE":0,"CLASSIFICATION_TYPE":"U","NORAD_CAT_ID":56886,"ELEMENT_SET_NO":999,"REV_AT_EPOCH":582,"BSTAR":0.0032889,"MEAN_MOTION_DOT":0.00057451,"MEAN_MOTION_DDOT":0},{"OBJECT_NAME":"STARLINK-6180","OBJECT_ID":"2023-083M","EPOCH":"2026-03-18T20:00:01.999008","MEAN_MOTION":15.09336076,"ECCENTRICITY":0.0001851,"INCLINATION":43.0002,"RA_OF_ASC_NODE":32.0192,"ARG_OF_PERICENTER":262.2649,"MEAN_ANOMALY":206.6581,"EPHEMERIS_TYPE":0,"CLASSIFICATION_TYPE":"U","NORAD_CAT_ID":56887,"ELEMENT_SET_NO":999,"REV_AT_EPOCH":577,"BSTAR":0.0036419,"MEAN_MOTION_DOT":0.00059391,"MEAN_MOTION_DDOT":0},{"OBJECT_NAME":"STARLINK-6181","OBJECT_ID":"2023-083N","EPOCH":"2026-03-18T20:00:01.999008","MEAN_MOTION":15.08474276,"ECCENTRICITY":8.65e-5,"INCLINATION":43.0012,"RA_OF_ASC_NODE":31.8296,"ARG_OF_PERICENTER":266.1902,"MEAN_ANOMALY":282.4126,"EPHEMERIS_TYPE":0,"CLASSIFICATION_TYPE":"U","NORAD_CAT_ID":56888,"ELEMENT_SET_NO":999,"REV_AT_EPOCH":582,"BSTAR":0.0037197,"MEAN_MOTION_DOT":0.00059243,"MEAN_MOTION_DDOT":0},{"OBJECT_NAME":"STARLINK-6169","OBJECT_ID":"2023-083P","EPOCH":"2026-03-18T20:00:01.999008","MEAN_MOTION":15.09897733,"ECCENTRICITY":3.31e-5,"INCLINATION":43.0009,"RA_OF_ASC_NODE":31.8987,"ARG_OF_PERICENTER":313.9038,"MEAN_ANOMALY":207.2914,"EPHEMERIS_TYPE":0,"CLASSIFICATION_TYPE":"U","NORAD_CAT_ID":56889,"ELEMENT_SET_NO":999,"REV_AT_EPOCH":577,"BSTAR":0.0033964,"MEAN_MOTION_DOT":0.00056211,"MEAN_MOTION_DDOT":0},{"OBJECT_NAME":"STARLINK-5528","OBJECT_ID":"2023-083Q","EPOCH":"2026-03-18T20:00:01.999008","MEAN_MOTION":15.08496203,"ECCENTRICITY":9.39e-5,"INCLINATION":43.0013,"RA_OF_ASC_NODE":31.8439,"ARG_OF_PERICENTER":258.3915,"MEAN_ANOMALY":284.3279,"EPHEMERIS_TYPE":0,"CLASSIFICATION_TYPE":"U","NORAD_CAT_ID":56890,"ELEMENT_SET_NO":999,"REV_AT_EPOCH":556,"BSTAR":0.0036791,"MEAN_MOTION_DOT":0.00058623,"MEAN_MOTION_DDOT":0},{"OBJECT_NAME":"STARLINK-6213","OBJECT_ID":"2023-083R","EPOCH":"2026-03-18T20:00:01.999008","MEAN_MOTION":15.10933921,"ECCENTRICITY":4.43e-5,"INCLINATION":43.0005,"RA_OF_ASC_NODE":31.7806,"ARG_OF_PERICENTER":242.3596,"MEAN_ANOMALY":328.7078,"EPHEMERIS_TYPE":0,"CLASSIFICATION_TYPE":"U","NORAD_CAT_ID":56891,"ELEMENT_SET_NO":999,"REV_AT_EPOCH":582,"BSTAR":0.0033274,"MEAN_MOTION_DOT":0.00056671,"MEAN_MOTION_DDOT":0},{"OBJECT_NAME":"STARLINK-6219","OBJECT_ID":"2023-083S","EPOCH":"2026-03-18T20:00:01.999008","MEAN_MOTION":15.07068251,"ECCENTRICITY":8.48e-5,"INCLINATION":43.0014,"RA_OF_ASC_NODE":31.7967,"ARG_OF_PERICENTER":312.4169,"MEAN_ANOMALY":249.3801,"EPHEMERIS_TYPE":0,"CLASSIFICATION_TYPE":"U","NORAD_CAT_ID":56892,"ELEMENT_SET_NO":999,"REV_AT_EPOCH":582,"BSTAR":0.0038738,"MEAN_MOTION_DOT":0.00059383,"MEAN_MOTION_DDOT":0},{"OBJECT_NAME":"STARLINK-6216","OBJECT_ID":"2023-083T","EPOCH":"2026-03-18T20:00:01.999008","MEAN_MOTION":15.09668953,"ECCENTRICITY":7.87e-5,"INCLINATION":43.0014,"RA_OF_ASC_NODE":31.8118,"ARG_OF_PERICENTER":266.8381,"MEAN_ANOMALY":289.9346,"EPHEMERIS_TYPE":0,"CLASSIFICATION_TYPE":"U","NORAD_CAT_ID":56893,"ELEMENT_SET_NO":999,"REV_AT_EPOCH":577,"BSTAR":0.003643,"MEAN_MOTION_DOT":0.0005996,"MEAN_MOTION_DDOT":0},{"OBJECT_NAME":"STARLINK-6144","OBJECT_ID":"2023-083U","EPOCH":"2026-03-18T20:00:01.999008","MEAN_MOTION":15.07964538,"ECCENTRICITY":6.76e-5,"INCLINATION":43.0015,"RA_OF_ASC_NODE":31.7829,"ARG_OF_PERICENTER":297.1303,"MEAN_ANOMALY":270.5327,"EPHEMERIS_TYPE":0,"CLASSIFICATION_TYPE":"U","NORAD_CAT_ID":56894,"ELEMENT_SET_NO":999,"REV_AT_EPOCH":582,"BSTAR":0.0038292,"MEAN_MOTION_DOT":0.00060155,"MEAN_MOTION_DDOT":0},{"OBJECT_NAME":"STARLINK-6208","OBJECT_ID":"2023-083V","EPOCH":"2026-03-18T20:00:01.999008","MEAN_MOTION":15.05871081,"ECCENTRICITY":0.0001031,"INCLINATION":43.0013,"RA_OF_ASC_NODE":31.8055,"ARG_OF_PERICENTER":317.8248,"MEAN_ANOMALY":241.0595,"EPHEMERIS_TYPE":0,"CLASSIFICATION_TYPE":"U","NORAD_CAT_ID":56895,"ELEMENT_SET_NO":999,"REV_AT_EPOCH":546,"BSTAR":0.0039598,"MEAN_MOTION_DOT":0.00058761,"MEAN_MOTION_DDOT":0},{"OBJECT_NAME":"STARLINK-6202","OBJECT_ID":"2023-083W","EPOCH":"2026-03-18T20:00:01.999008","MEAN_MOTION":15.06323977,"ECCENTRICITY":6.31e-5,"INCLINATION":43.0007,"RA_OF_ASC_NODE":31.7318,"ARG_OF_PERICENTER":323.254,"MEAN_ANOMALY":265.3567,"EPHEMERIS_TYPE":0,"CLASSIFICATION_TYPE":"U","NORAD_CAT_ID":56896,"ELEMENT_SET_NO":999,"REV_AT_EPOCH":582,"BSTAR":0.0039229,"MEAN_MOTION_DOT":0.00058932,"MEAN_MOTION_DDOT":0},{"OBJECT_NAME":"STARLINK-6200","OBJECT_ID":"2023-083X","EPOCH":"2026-03-18T20:00:01.999008","MEAN_MOTION":15.07729387,"ECCENTRICITY":4.74e-5,"INCLINATION":43.0009,"RA_OF_ASC_NODE":31.7319,"ARG_OF_PERICENTER":286.0934,"MEAN_ANOMALY":302.332,"EPHEMERIS_TYPE":0,"CLASSIFICATION_TYPE":"U","NORAD_CAT_ID":56897,"ELEMENT_SET_NO":999,"REV_AT_EPOCH":576,"BSTAR":0.0038527,"MEAN_MOTION_DOT":0.00060138,"MEAN_MOTION_DDOT":0},{"OBJECT_NAME":"STARLINK-6205","OBJECT_ID":"2023-083Y","EPOCH":"2026-03-18T20:00:01.999008","MEAN_MOTION":15.23875888,"ECCENTRICITY":0.0001318,"INCLINATION":43.0006,"RA_OF_ASC_NODE":29.9959,"ARG_OF_PERICENTER":251.6145,"MEAN_ANOMALY":354.3303,"EPHEMERIS_TYPE":0,"CLASSIFICATION_TYPE":"U","NORAD_CAT_ID":56898,"ELEMENT_SET_NO":999,"REV_AT_EPOCH":581,"BSTAR":0.0042888,"MEAN_MOTION_DOT":0.00106841,"MEAN_MOTION_DDOT":0},{"OBJECT_NAME":"STARLINK-6203","OBJECT_ID":"2023-083Z","EPOCH":"2026-03-18T20:00:01.999008","MEAN_MOTION":15.26727307,"ECCENTRICITY":0.0001243,"INCLINATION":43.0004,"RA_OF_ASC_NODE":29.6048,"ARG_OF_PERICENTER":253.2289,"MEAN_ANOMALY":157.0091,"EPHEMERIS_TYPE":0,"CLASSIFICATION_TYPE":"U","NORAD_CAT_ID":56899,"ELEMENT_SET_NO":999,"REV_AT_EPOCH":582,"BSTAR":0.0013733,"MEAN_MOTION_DOT":0.00036748,"MEAN_MOTION_DDOT":0},{"OBJECT_NAME":"STARLINK-6207","OBJECT_ID":"2023-083AA","EPOCH":"2026-03-18T20:00:01.999008","MEAN_MOTION":15.17960028,"ECCENTRICITY":9.71e-5,"INCLINATION":43.0002,"RA_OF_ASC_NODE":18.6691,"ARG_OF_PERICENTER":262.8047,"MEAN_ANOMALY":359.1451,"EPHEMERIS_TYPE":0,"CLASSIFICATION_TYPE":"U","NORAD_CAT_ID":56900,"ELEMENT_SET_NO":999,"REV_AT_EPOCH":581,"BSTAR":0.0028933,"MEAN_MOTION_DOT":0.00060123,"MEAN_MOTION_DDOT":0},{"OBJECT_NAME":"STARLINK-6185","OBJECT_ID":"2023-083AB","EPOCH":"2026-03-18T20:00:01.999008","MEAN_MOTION":15.24275867,"ECCENTRICITY":0.0001533,"INCLINATION":43,"RA_OF_ASC_NODE":29.9273,"ARG_OF_PERICENTER":243.2796,"MEAN_ANOMALY":29.4559,"EPHEMERIS_TYPE":0,"CLASSIFICATION_TYPE":"U","NORAD_CAT_ID":56901,"ELEMENT_SET_NO":999,"REV_AT_EPOCH":581,"BSTAR":0.0040476,"MEAN_MOTION_DOT":0.00101963,"MEAN_MOTION_DDOT":0},{"OBJECT_NAME":"STARLINK-6195","OBJECT_ID":"2023-083AC","EPOCH":"2026-03-18T20:00:01.999008","MEAN_MOTION":15.16641369,"ECCENTRICITY":4.59e-5,"INCLINATION":43.0008,"RA_OF_ASC_NODE":18.7995,"ARG_OF_PERICENTER":255.1896,"MEAN_ANOMALY":311.6636,"EPHEMERIS_TYPE":0,"CLASSIFICATION_TYPE":"U","NORAD_CAT_ID":56902,"ELEMENT_SET_NO":999,"REV_AT_EPOCH":581,"BSTAR":0.0026249,"MEAN_MOTION_DOT":0.00052436,"MEAN_MOTION_DDOT":0}]
